{"type":"FeatureCollection","name":"SafeRoute MVP boundaries","licence":"Data © OpenStreetMap contributors, ODbL 1.0","generated_at":"2026-07-30","features":[{"type":"Feature","properties":{"place_id":307312210,"osm_type":"relation","osm_id":11381891,"place_rank":16,"category":"boundary","type":"administrative","importance":0.3737616996631093,"addresstype":"city","name":"El Chorrillo","display_name":"El Chorrillo, Distrito de Panamá, Provincia de Panamá, Panamá"},"bbox":[-79.5503011,8.9445282,-79.5368437,8.9529605],"geometry":{"type":"Polygon","coordinates":[[[-79.5503011,8.9448939],[-79.5500106,8.9447186],[-79.5495918,8.9445758],[-79.5492967,8.9445282],[-79.5491063,8.9446473],[-79.5488191,8.9448207],[-79.5487438,8.9448661],[-79.5484784,8.9450549],[-79.548492,8.9450762],[-79.5484197,8.9451814],[-79.5484156,8.9451873],[-79.5483451,8.9451866],[-79.548279,8.945241],[-79.5481888,8.9452033],[-79.548165,8.945229],[-79.5481583,8.9452362],[-79.5481412,8.9452542],[-79.5481977,8.9453196],[-79.5480891,8.9454471],[-79.5479509,8.9456611],[-79.5478378,8.9457733],[-79.5476708,8.9459691],[-79.5475167,8.9460876],[-79.547352,8.9461993],[-79.5472363,8.9462686],[-79.5469465,8.9463851],[-79.5467407,8.9464402],[-79.5465828,8.9464497],[-79.5464787,8.9464236],[-79.5464142,8.9462881],[-79.5463564,8.9461039],[-79.5462712,8.9459528],[-79.5462081,8.9458098],[-79.5461671,8.9456307],[-79.5461708,8.9455146],[-79.5461083,8.9454372],[-79.5460237,8.9454044],[-79.5457482,8.9454038],[-79.5456548,8.9454309],[-79.5456255,8.9455949],[-79.5456042,8.9456562],[-79.5455884,8.9457239],[-79.5455521,8.9461574],[-79.5455361,8.9462779],[-79.545502,8.9463788],[-79.5454238,8.9465375],[-79.5453894,8.9466402],[-79.5454422,8.9469829],[-79.5452703,8.9470586],[-79.5450937,8.9471037],[-79.5450146,8.9471086],[-79.5449993,8.9470324],[-79.5449524,8.9468243],[-79.5448609,8.9468438],[-79.5449078,8.947058],[-79.5449206,8.9471165],[-79.5447454,8.9471616],[-79.5443678,8.9472587],[-79.5440985,8.9473442],[-79.543954,8.9473686],[-79.5436142,8.9473982],[-79.5435234,8.9474123],[-79.5435211,8.9473808],[-79.5435148,8.9473571],[-79.5435078,8.9473418],[-79.5434908,8.9473127],[-79.543472,8.9472903],[-79.543446,8.9472701],[-79.5434216,8.9472562],[-79.543392,8.9472446],[-79.5433683,8.9472414],[-79.5433451,8.9472381],[-79.5433177,8.9472422],[-79.5432918,8.947249],[-79.5432718,8.9472558],[-79.5432481,8.9472687],[-79.5432239,8.9472867],[-79.5432066,8.9473072],[-79.5431948,8.9473235],[-79.5431864,8.9473458],[-79.5431777,8.9473789],[-79.5431375,8.9473499],[-79.5431118,8.9473384],[-79.5430758,8.9473338],[-79.5430483,8.9473396],[-79.5430212,8.9473497],[-79.5429907,8.9473666],[-79.5429698,8.9473874],[-79.5429546,8.9474106],[-79.5429448,8.9474409],[-79.5429417,8.9474692],[-79.5429468,8.9474992],[-79.5429538,8.9475209],[-79.5429694,8.9475478],[-79.542888,8.9475667],[-79.5428536,8.9475738],[-79.5427507,8.9475968],[-79.5426997,8.9476221],[-79.542561,8.9476855],[-79.5423567,8.9477729],[-79.5422391,8.947818],[-79.5420774,8.9478883],[-79.5419803,8.9479265],[-79.541874,8.9479617],[-79.541637,8.9480389],[-79.5414246,8.9480995],[-79.5412534,8.9481385],[-79.5410422,8.9481669],[-79.5409049,8.9482182],[-79.5406353,8.9483411],[-79.540562,8.9483643],[-79.5405772,8.948396],[-79.5404969,8.948424],[-79.5403967,8.9484429],[-79.5402807,8.9484606],[-79.540122,8.9484524],[-79.5400019,8.9484427],[-79.5398077,8.9483899],[-79.5394368,8.948261],[-79.5388075,8.9479777],[-79.5382435,8.9477194],[-79.5378222,8.9475289],[-79.5375803,8.9474199],[-79.5372947,8.9473037],[-79.5372121,8.9473068],[-79.5371372,8.9473316],[-79.5370317,8.9473812],[-79.5369732,8.9474406],[-79.5368718,8.9476822],[-79.5368512,8.947749],[-79.5368437,8.9477967],[-79.5368458,8.9478494],[-79.536943,8.948113],[-79.5369718,8.9481531],[-79.5370248,8.9482016],[-79.537186,8.9483451],[-79.5375773,8.9484932],[-79.5380531,8.9484786],[-79.5385727,8.9487065],[-79.5385787,8.9498564],[-79.5385993,8.9498575],[-79.5386061,8.9503158],[-79.5384396,8.9504391],[-79.538435,8.9505065],[-79.5384385,8.9505813],[-79.5384496,8.9508182],[-79.538469,8.9512303],[-79.5385011,8.9519153],[-79.5385055,8.9521633],[-79.5385057,8.9522274],[-79.5384724,8.9524116],[-79.5384584,8.9529605],[-79.5389791,8.9529137],[-79.5395927,8.9528345],[-79.5396252,8.9528077],[-79.5400119,8.952747],[-79.5405613,8.9526857],[-79.5411619,8.9526202],[-79.5412341,8.952662],[-79.5419868,8.9525599],[-79.5425596,8.9523386],[-79.5429701,8.9521601],[-79.5434042,8.9520317],[-79.543448,8.9520124],[-79.544347,8.9520932],[-79.5454223,8.9522192],[-79.545715,8.9522737],[-79.5462161,8.9523299],[-79.5466764,8.9523692],[-79.5468048,8.9523642],[-79.5469368,8.9523492],[-79.5470635,8.95232],[-79.5473434,8.9522288],[-79.5476459,8.9521278],[-79.5478138,8.9520717],[-79.5479923,8.9520121],[-79.5481218,8.951964],[-79.5481829,8.9519766],[-79.5483241,8.9517807],[-79.5484448,8.9515687],[-79.5485602,8.9513541],[-79.5486648,8.9511236],[-79.5488016,8.9507739],[-79.5492817,8.9494464],[-79.5503011,8.9448939]]]}},{"type":"Feature","properties":{"place_id":307483045,"osm_type":"relation","osm_id":11381981,"place_rank":16,"category":"boundary","type":"administrative","importance":0.36212526445830706,"addresstype":"city","name":"Santa Ana","display_name":"Santa Ana, Distrito de Panamá, Provincia de Panamá, Panamá"},"bbox":[-79.5481829,8.9519640,-79.5329082,8.9622801],"geometry":{"type":"Polygon","coordinates":[[[-79.5481829,8.9519766],[-79.5481218,8.951964],[-79.5479923,8.9520121],[-79.5478138,8.9520717],[-79.5476459,8.9521278],[-79.5473434,8.9522288],[-79.5470635,8.95232],[-79.5469368,8.9523492],[-79.5468048,8.9523642],[-79.5466764,8.9523692],[-79.5462161,8.9523299],[-79.545715,8.9522737],[-79.5454223,8.9522192],[-79.544347,8.9520932],[-79.543448,8.9520124],[-79.5434042,8.9520317],[-79.5429701,8.9521601],[-79.5425596,8.9523386],[-79.5419868,8.9525599],[-79.5412341,8.952662],[-79.5411619,8.9526202],[-79.5405613,8.9526857],[-79.5400119,8.952747],[-79.5396252,8.9528077],[-79.5395927,8.9528345],[-79.5389791,8.9529137],[-79.5384584,8.9529605],[-79.5384634,8.953641],[-79.5384767,8.9537004],[-79.5387297,8.9542372],[-79.5388645,8.9545231],[-79.5388449,8.9545275],[-79.538539,8.9545958],[-79.5381838,8.9546775],[-79.537974,8.9547279],[-79.5375062,8.9548311],[-79.5370817,8.9549191],[-79.5369764,8.9549102],[-79.536837,8.9548567],[-79.5362366,8.9553403],[-79.5361806,8.9553987],[-79.536135,8.9554888],[-79.535943,8.9555931],[-79.5361872,8.9562389],[-79.5361942,8.9563381],[-79.5361843,8.9564529],[-79.5361463,8.9565521],[-79.5361043,8.9566132],[-79.5360646,8.9566508],[-79.53597,8.9567139],[-79.5358599,8.956743],[-79.5356782,8.9567418],[-79.5353709,8.9567258],[-79.534935,8.956695],[-79.5345368,8.9566524],[-79.534146,8.9565883],[-79.5338815,8.9565648],[-79.5334504,8.9565682],[-79.5331969,8.9565691],[-79.5331175,8.956588],[-79.5330142,8.9566961],[-79.5329571,8.9570224],[-79.532938,8.9571492],[-79.5329085,8.9576266],[-79.5329082,8.9578942],[-79.5329166,8.958095],[-79.5329387,8.95833],[-79.5329679,8.9585651],[-79.5329858,8.9586051],[-79.5330297,8.9586278],[-79.5330731,8.958627],[-79.5331094,8.9586018],[-79.5331272,8.9585738],[-79.5331343,8.9585407],[-79.5331256,8.9584865],[-79.5331559,8.9584814],[-79.5331495,8.9583931],[-79.533141,8.958211],[-79.5331627,8.9580881],[-79.5332036,8.9579807],[-79.5332721,8.9577853],[-79.5333814,8.9576282],[-79.5335267,8.9574671],[-79.5336313,8.9573871],[-79.5337858,8.9573147],[-79.5339476,8.9572611],[-79.534142,8.9572487],[-79.5352256,8.9573305],[-79.5354276,8.9573725],[-79.5355942,8.957418],[-79.5357191,8.9574548],[-79.5359087,8.9575583],[-79.5360625,8.9576673],[-79.5362035,8.9577882],[-79.5362966,8.9579156],[-79.5364742,8.9581725],[-79.5365574,8.9583199],[-79.5365113,8.9584237],[-79.5364926,8.958494],[-79.5364767,8.9585773],[-79.5361963,8.9585113],[-79.5361625,8.9586526],[-79.536156,8.9586798],[-79.53615,8.958705],[-79.5361409,8.9587429],[-79.53619,8.9587544],[-79.5362278,8.9587632],[-79.5362098,8.9588367],[-79.5362006,8.9588861],[-79.5361544,8.9590757],[-79.5375891,8.9596467],[-79.538018,8.9598265],[-79.5388037,8.9601608],[-79.5389866,8.9602722],[-79.5390974,8.9603726],[-79.539147,8.9604265],[-79.5391889,8.960482],[-79.5397235,8.9612772],[-79.5401686,8.9619308],[-79.5402438,8.9620094],[-79.5403191,8.9620743],[-79.540442,8.9621536],[-79.5405671,8.9622159],[-79.5407226,8.9622801],[-79.5408347,8.9618012],[-79.540891,8.9617507],[-79.5410025,8.9617115],[-79.5413923,8.9615689],[-79.5417384,8.9614575],[-79.5419786,8.9613732],[-79.5421369,8.9613401],[-79.5423042,8.9613262],[-79.5423784,8.9613479],[-79.542402,8.9613621],[-79.5424448,8.9613878],[-79.5425537,8.9615787],[-79.5428033,8.9620741],[-79.542838,8.962221],[-79.5428496,8.9622015],[-79.5428263,8.9614107],[-79.5427958,8.9610907],[-79.5427734,8.9608466],[-79.5427392,8.9605168],[-79.5427497,8.9603957],[-79.5428198,8.9600428],[-79.5428256,8.9599471],[-79.5428571,8.9595769],[-79.5429015,8.95942],[-79.5429564,8.9592055],[-79.5431245,8.9588757],[-79.5437012,8.9580903],[-79.5438694,8.957847],[-79.54396,8.9577151],[-79.5440458,8.9575706],[-79.54414,8.9573653],[-79.5442456,8.9571958],[-79.5444298,8.9569472],[-79.5449154,8.956302],[-79.5456612,8.9553012],[-79.5465278,8.9541554],[-79.5473975,8.9530217],[-79.5481829,8.9519766]]]}},{"type":"Feature","properties":{"place_id":308071203,"osm_type":"relation","osm_id":11381880,"place_rank":16,"category":"boundary","type":"administrative","importance":0.3572718937775532,"addresstype":"quarter","name":"San Felipe","display_name":"San Felipe, Distrito de Panamá, Provincia de Panamá, Panamá"},"bbox":[-79.5388645,8.9492236,-79.5314637,8.9555931],"geometry":{"type":"Polygon","coordinates":[[[-79.5388645,8.9545231],[-79.5387297,8.9542372],[-79.5384767,8.9537004],[-79.5384634,8.953641],[-79.5384584,8.9529605],[-79.5384724,8.9524116],[-79.5385057,8.9522274],[-79.5385055,8.9521633],[-79.5385011,8.9519153],[-79.538469,8.9512303],[-79.5384496,8.9508182],[-79.5384385,8.9505813],[-79.538435,8.9505065],[-79.5384396,8.9504391],[-79.5384257,8.9504527],[-79.5384149,8.9504908],[-79.5380469,8.9505103],[-79.5379763,8.9505127],[-79.5379761,8.9505181],[-79.5379739,8.9505746],[-79.5378999,8.9507405],[-79.5378658,8.9507527],[-79.537795,8.9507851],[-79.5376804,8.9507967],[-79.5376066,8.9508042],[-79.537352,8.9508282],[-79.5373404,8.9508999],[-79.5372331,8.9508632],[-79.5371639,8.9508311],[-79.5370803,8.950822],[-79.5370916,8.9507333],[-79.5368798,8.9507404],[-79.5367619,8.9508244],[-79.5366116,8.9508854],[-79.5364491,8.9509298],[-79.5360938,8.9509],[-79.5359785,8.9508447],[-79.5359355,8.9508072],[-79.5358658,8.9506829],[-79.5356784,8.9507021],[-79.5355935,8.9506595],[-79.5354827,8.9505136],[-79.5351796,8.950403],[-79.5350143,8.9505145],[-79.5349076,8.9505151],[-79.5347595,8.9505332],[-79.5346376,8.9505673],[-79.5345865,8.9505629],[-79.5345285,8.9505698],[-79.5344488,8.9505779],[-79.5343756,8.9505866],[-79.5343003,8.9506181],[-79.5341933,8.9506746],[-79.534,8.950743],[-79.5337641,8.9507592],[-79.5335372,8.9507776],[-79.5333077,8.9508036],[-79.5330817,8.9508204],[-79.5329167,8.9508187],[-79.5327502,8.9508061],[-79.5326996,8.9506254],[-79.5325647,8.9504651],[-79.5323594,8.950113],[-79.5323445,8.9500009],[-79.5323904,8.949876],[-79.5323294,8.9498388],[-79.5322889,8.9497106],[-79.5321485,8.9493205],[-79.5321328,8.9492933],[-79.5321152,8.9492706],[-79.532087,8.9492459],[-79.5320591,8.9492315],[-79.5320226,8.9492236],[-79.5319864,8.9492249],[-79.5319494,8.9492347],[-79.531929,8.949246],[-79.5319116,8.9492557],[-79.5318775,8.9492977],[-79.5317325,8.9496191],[-79.5316244,8.9499121],[-79.5314637,8.950313],[-79.5316519,8.9506197],[-79.5316,8.950837],[-79.5315819,8.95099],[-79.5315626,8.9510637],[-79.5315586,8.9511519],[-79.5315542,8.9512315],[-79.5315459,8.9512978],[-79.5315681,8.9513692],[-79.5316728,8.9513679],[-79.531658,8.9515222],[-79.5316551,8.9517848],[-79.5316781,8.9518547],[-79.5318509,8.9519223],[-79.5319347,8.951937],[-79.5321317,8.9520245],[-79.5321631,8.9520436],[-79.5321694,8.9520695],[-79.532231,8.9520964],[-79.5322722,8.952157],[-79.5323315,8.952316],[-79.5324316,8.9524218],[-79.5323721,8.9529906],[-79.5321225,8.9529706],[-79.5320959,8.9532607],[-79.5322347,8.9532708],[-79.5324128,8.953286],[-79.5325051,8.9534287],[-79.5325452,8.9535623],[-79.5325756,8.9536717],[-79.532589,8.9537135],[-79.5326043,8.9537593],[-79.5326049,8.9538932],[-79.5326044,8.9540052],[-79.5326097,8.9540341],[-79.5326422,8.9540365],[-79.5326374,8.9541839],[-79.5330275,8.9542038],[-79.533032,8.9542868],[-79.5330258,8.954365],[-79.5330461,8.9543758],[-79.5330549,8.9543656],[-79.5331137,8.9543936],[-79.5331749,8.9544085],[-79.5331869,8.9543804],[-79.5332117,8.9543651],[-79.5332729,8.9543703],[-79.5333598,8.9543545],[-79.5334364,8.9543007],[-79.5335195,8.954252],[-79.5335421,8.9542219],[-79.533557,8.9541604],[-79.5336848,8.9540891],[-79.5337234,8.9540676],[-79.5337619,8.9540721],[-79.533759,8.9541904],[-79.533986,8.9541963],[-79.5341188,8.9541991],[-79.5341498,8.9542293],[-79.5341478,8.9543635],[-79.5342143,8.9543645],[-79.5342851,8.9543655],[-79.5342863,8.9542853],[-79.5342877,8.9541923],[-79.5342887,8.9541701],[-79.5343719,8.9541476],[-79.5344618,8.9541262],[-79.5345547,8.9541042],[-79.5346022,8.9540929],[-79.534616,8.954092],[-79.5346483,8.9540868],[-79.5347087,8.9540776],[-79.5348192,8.9540656],[-79.5348929,8.9541329],[-79.5348901,8.9541738],[-79.5349651,8.9541823],[-79.5351076,8.9541936],[-79.5354541,8.9540849],[-79.5354912,8.9542031],[-79.5357589,8.9541381],[-79.5357619,8.9541473],[-79.5358644,8.9541385],[-79.5359381,8.954231],[-79.5358945,8.9554681],[-79.5359134,8.9555147],[-79.535943,8.9555931],[-79.536135,8.9554888],[-79.5361806,8.9553987],[-79.5362366,8.9553403],[-79.536837,8.9548567],[-79.5369764,8.9549102],[-79.5370817,8.9549191],[-79.5375062,8.9548311],[-79.537974,8.9547279],[-79.5381838,8.9546775],[-79.538539,8.9545958],[-79.5388449,8.9545275],[-79.5388645,8.9545231]]]}}]}